{"type": "FeatureCollection", "features": [ {"type": "Feature", "properties": {"norad_id": 66627, "name": "STARLINK-35904", "group": "last-30-days", "lat": -34.70677067801151, "lon": 70.19145783530568, "alt_km": 318.4854991584434, "timestamp": "2025-12-06T05:40:08.012729+00:00", "meta": {"OBJECT_NAME": "STARLINK-35904", "OBJECT_ID": "2025-271L", "EPOCH": "2025-12-04T20:53:36.822048", "MEAN_MOTION": 15.81648134, "ECCENTRICITY": 0.0009708, "INCLINATION": 53.1559, "RA_OF_ASC_NODE": 225.7674, "ARG_OF_PERICENTER": 244.3636, "MEAN_ANOMALY": 115.6385, "EPHEMERIS_TYPE": 0, "CLASSIFICATION_TYPE": "U", "NORAD_CAT_ID": 66627, "ELEMENT_SET_NO": 999, "REV_AT_EPOCH": 293, "BSTAR": 0.0034623, "MEAN_MOTION_DOT": 0.00775594, "MEAN_MOTION_DDOT": 0}, "tle": {"line1": "1 66627U 25271L   25338.87056507  .00775594  00000+0  34623-2 0  9999", "line2": "2 66627  53.1559 225.7674 0009708 244.3636 115.6385 15.81648134  2936"}}, "geometry": {"type": "Point", "coordinates": [70.19145783530568, -34.70677067801151]}}, {"type": "Feature", "properties": {"norad_id": 66628, "name": "STARLINK-35862", "group": "last-30-days", "lat": 7.8598339029358035, "lon": 33.08293165414643, "alt_km": 393.39466836903466, "timestamp": "2025-12-06T05:40:08.012743+00:00", "meta": {"OBJECT_NAME": "STARLINK-35862", "OBJECT_ID": "2025-271M", "EPOCH": "2025-12-05T04:29:21.043104", "MEAN_MOTION": 15.75331783, "ECCENTRICITY": 0.00292278, "INCLINATION": 53.1565, "RA_OF_ASC_NODE": 224.1852, "ARG_OF_PERICENTER": 300.1043, "MEAN_ANOMALY": 59.7081, "EPHEMERIS_TYPE": 0, "CLASSIFICATION_TYPE": "U", "NORAD_CAT_ID": 66628, "ELEMENT_SET_NO": 999, "REV_AT_EPOCH": 302, "BSTAR": -0.043866785, "MEAN_MOTION_DOT": -0.05803272, "MEAN_MOTION_DDOT": 0}, "tle": {"line1": "1 66628U 25271M   25339.18704911 -.05803272  00000+0 -43867-1 0  9995", "line2": "2 66628  53.1565 224.1852 0029227 300.1043  59.7081 15.75331783  3020"}}, "geometry": {"type": "Point", "coordinates": [33.08293165414643, 7.8598339029358035]}}, {"type": "Feature", "properties": {"norad_id": 66629, "name": "STARLINK-35956", "group": "last-30-days", "lat": -17.554137244347608, "lon": 52.68390321349456, "alt_km": 347.43858425873896, "timestamp": "2025-12-06T05:40:08.012754+00:00", "meta": {"OBJECT_NAME": "STARLINK-35956", "OBJECT_ID": "2025-271N", "EPOCH": "2025-12-05T05:58:56.604864", "MEAN_MOTION": 15.78470183, "ECCENTRICITY": 0.00069761, "INCLINATION": 53.1542, "RA_OF_ASC_NODE": 223.8713, "ARG_OF_PERICENTER": 229.6453, "MEAN_ANOMALY": 130.396, "EPHEMERIS_TYPE": 0, "CLASSIFICATION_TYPE": "U", "NORAD_CAT_ID": 66629, "ELEMENT_SET_NO": 999, "REV_AT_EPOCH": 303, "BSTAR": -0.016516188, "MEAN_MOTION_DOT": -0.02510683, "MEAN_MOTION_DDOT": 0}, "tle": {"line1": "1 66629U 25271N   25339.24926626 -.02510683  00000+0 -16516-1 0  9991", "line2": "2 66629  53.1542 223.8713 0006976 229.6453 130.3960 15.78470183  3038"}}, "geometry": {"type": "Point", "coordinates": [52.68390321349456, -17.554137244347608]}}, {"type": "Feature", "properties": {"norad_id": 66630, "name": "STARLINK-35949", "group": "last-30-days", "lat": -47.4494955102029, "lon": 93.63112724751366, "alt_km": 305.26868269305123, "timestamp": "2025-12-06T05:40:08.012764+00:00", "meta": {"OBJECT_NAME": "STARLINK-35949", "OBJECT_ID": "2025-271P", "EPOCH": "2025-12-04T16:18:42.866784", "MEAN_MOTION": 15.82414283, "ECCENTRICITY": 0.0013011, "INCLINATION": 53.1561, "RA_OF_ASC_NODE": 226.7087, "ARG_OF_PERICENTER": 255.5421, "MEAN_ANOMALY": 104.4159, "EPHEMERIS_TYPE": 0, "CLASSIFICATION_TYPE": "U", "NORAD_CAT_ID": 66630, "ELEMENT_SET_NO": 999, "REV_AT_EPOCH": 294, "BSTAR": 0.0072798, "MEAN_MOTION_DOT": 0.01751673, "MEAN_MOTION_DDOT": 0}, "tle": {"line1": "1 66630U 25271P   25338.67966281  .01751673  00000+0  72798-2 0  9998", "line2": "2 66630  53.1561 226.7087 0013011 255.5421 104.4159 15.82414283  2943"}}, "geometry": {"type": "Point", "coordinates": [93.63112724751366, -47.4494955102029]}}, {"type": "Feature", "properties": {"norad_id": 66631, "name": "STARLINK-35965", "group": "last-30-days", "lat": -37.49937109282074, "lon": 74.01919945355758, "alt_km": 325.15253251573176, "timestamp": "2025-12-06T05:40:08.012774+00:00", "meta": {"OBJECT_NAME": "STARLINK-35965", "OBJECT_ID": "2025-271Q", "EPOCH": "2025-12-04T22:22:01.610112", "MEAN_MOTION": 15.81644206, "ECCENTRICITY": 0.0009959, "INCLINATION": 53.1559, "RA_OF_ASC_NODE": 225.4384, "ARG_OF_PERICENTER": 249.18, "MEAN_ANOMALY": 110.8157, "EPHEMERIS_TYPE": 0, "CLASSIFICATION_TYPE": "U", "NORAD_CAT_ID": 66631, "ELEMENT_SET_NO": 999, "REV_AT_EPOCH": 298, "BSTAR": -0.00084971, "MEAN_MOTION_DOT": -0.00171858, "MEAN_MOTION_DDOT": 0}, "tle": {"line1": "1 66631U 25271Q   25338.93196308 -.00171858  00000+0 -84971-3 0  9992", "line2": "2 66631  53.1559 225.4384 0009959 249.1800 110.8157 15.81644206  2985"}}, "geometry": {"type": "Point", "coordinates": [74.01919945355758, -37.49937109282074]}}, {"type": "Feature", "properties": {"norad_id": 66632, "name": "STARLINK-35973", "group": "last-30-days", "lat": -49.731476156395246, "lon": 101.1212788824224, "alt_km": 303.7062835400111, "timestamp": "2025-12-06T05:40:08.012784+00:00", "meta": {"OBJECT_NAME": "STARLINK-35973", "OBJECT_ID": "2025-271R", "EPOCH": "2025-12-05T05:55:20.151264", "MEAN_MOTION": 15.84396697, "ECCENTRICITY": 0.00203835, "INCLINATION": 53.1555, "RA_OF_ASC_NODE": 223.8443, "ARG_OF_PERICENTER": 290.7056, "MEAN_ANOMALY": 69.1783, "EPHEMERIS_TYPE": 0, "CLASSIFICATION_TYPE": "U", "NORAD_CAT_ID": 66632, "ELEMENT_SET_NO": 999, "REV_AT_EPOCH": 299, "BSTAR": 0.0065888113, "MEAN_MOTION_DOT": 0.01794338, "MEAN_MOTION_DDOT": 0}, "tle": {"line1": "1 66632U 25271R   25339.24676101  .01794338  00000+0  65888-2 0  9990", "line2": "2 66632  53.1555 223.8443 0020383 290.7056  69.1783 15.84396697  2992"}}, "geometry": {"type": "Point", "coordinates": [101.1212788824224, -49.731476156395246]}}, {"type": "Feature", "properties": {"norad_id": 66633, "name": "STARLINK-35948", "group": "last-30-days", "lat": -47.61272861642479, "lon": 94.10173325867297, "alt_km": 311.38670528420334, "timestamp": "2025-12-06T05:40:08.012794+00:00", "meta": {"OBJECT_NAME": "STARLINK-35948", "OBJECT_ID": "2025-271S", "EPOCH": "2025-12-05T02:54:02.678976", "MEAN_MOTION": 15.827094, "ECCENTRICITY": 0.00180308, "INCLINATION": 53.1552, "RA_OF_ASC_NODE": 224.4831, "ARG_OF_PERICENTER": 319.8155, "MEAN_ANOMALY": 40.1535, "EPHEMERIS_TYPE": 0, "CLASSIFICATION_TYPE": "U", "NORAD_CAT_ID": 66633, "ELEMENT_SET_NO": 999, "REV_AT_EPOCH": 301, "BSTAR": 0.00851054, "MEAN_MOTION_DOT": 0.02140129, "MEAN_MOTION_DDOT": 0}, "tle": {"line1": "1 66633U 25271S   25339.12086434  .02140129  00000+0  85105-2 0  9990", "line2": "2 66633  53.1552 224.4831 0018030 319.8155  40.1535 15.82709400  3013"}}, "geometry": {"type": "Point", "coordinates": [94.10173325867297, -47.61272861642479]}}, {"type": "Feature", "properties": {"norad_id": 66634, "name": "STARLINK-35967", "group": "last-30-days", "lat": 23.963754890588746, "lon": 19.709340578402415, "alt_km": 341.6795591275595, "timestamp": "2025-12-06T05:40:08.012804+00:00", "meta": {"OBJECT_NAME": "STARLINK-35967", "OBJECT_ID": "2025-271T", "EPOCH": "2025-12-04T16:17:20.200128", "MEAN_MOTION": 15.74398593, "ECCENTRICITY": 0.003543, "INCLINATION": 53.1568, "RA_OF_ASC_NODE": 226.7021, "ARG_OF_PERICENTER": 33.0196, "MEAN_ANOMALY": 327.3026, "EPHEMERIS_TYPE": 0, "CLASSIFICATION_TYPE": "U", "NORAD_CAT_ID": 66634, "ELEMENT_SET_NO": 999, "REV_AT_EPOCH": 290, "BSTAR": -0.07605, "MEAN_MOTION_DOT": -0.09405874, "MEAN_MOTION_DDOT": 0}, "tle": {"line1": "1 66634U 25271T   25338.67870602 -.09405874  00000+0 -76050-1 0  9996", "line2": "2 66634  53.1568 226.7021 0035430  33.0196 327.3026 15.74398593  2900"}}, "geometry": {"type": "Point", "coordinates": [19.709340578402415, 23.963754890588746]}}, {"type": "Feature", "properties": {"norad_id": 66635, "name": "STARLINK-35955", "group": "last-30-days", "lat": -50.058852525160475, "lon": 102.44040530805256, "alt_km": 303.6952594124605, "timestamp": "2025-12-06T05:40:08.012818+00:00", "meta": {"OBJECT_NAME": "STARLINK-35955", "OBJECT_ID": "2025-271U", "EPOCH": "2025-12-05T04:24:09.717120", "MEAN_MOTION": 15.81245571, "ECCENTRICITY": 0.00114922, "INCLINATION": 53.1523, "RA_OF_ASC_NODE": 224.1641, "ARG_OF_PERICENTER": 344.8155, "MEAN_ANOMALY": 15.2521, "EPHEMERIS_TYPE": 0, "CLASSIFICATION_TYPE": "U", "NORAD_CAT_ID": 66635, "ELEMENT_SET_NO": 999, "REV_AT_EPOCH": 302, "BSTAR": 0.01841904, "MEAN_MOTION_DOT": 0.04351412, "MEAN_MOTION_DDOT": 0}, "tle": {"line1": "1 66635U 25271U   25339.18344580  .04351412  00000+0  18419-1 0  9991", "line2": "2 66635  53.1523 224.1641 0011492 344.8155  15.2521 15.81245571  3024"}}, "geometry": {"type": "Point", "coordinates": [102.44040530805256, -50.058852525160475]}}, {"type": "Feature", "properties": {"norad_id": 66636, "name": "STARLINK-35968", "group": "last-30-days", "lat": -44.984879895907405, "lon": 87.41322107603868, "alt_km": 321.2067031662227, "timestamp": "2025-12-06T05:40:08.012832+00:00", "meta": {"OBJECT_NAME": "STARLINK-35968", "OBJECT_ID": "2025-271V", "EPOCH": "2025-12-05T04:23:30.283296", "MEAN_MOTION": 15.811936, "ECCENTRICITY": 0.00086082, "INCLINATION": 53.1548, "RA_OF_ASC_NODE": 224.1574, "ARG_OF_PERICENTER": 227.9075, "MEAN_ANOMALY": 132.1217, "EPHEMERIS_TYPE": 0, "CLASSIFICATION_TYPE": "U", "NORAD_CAT_ID": 66636, "ELEMENT_SET_NO": 999, "REV_AT_EPOCH": 302, "BSTAR": 0.0039612228, "MEAN_MOTION_DOT": 0.00879132, "MEAN_MOTION_DDOT": 0}, "tle": {"line1": "1 66636U 25271V   25339.18298939  .00879132  00000+0  39612-2 0  9997", "line2": "2 66636  53.1548 224.1574 0008608 227.9075 132.1217 15.81193600  3020"}}, "geometry": {"type": "Point", "coordinates": [87.41322107603868, -44.984879895907405]}}]}